{
    "links": {
        "self": "http://www.neowsapp.com/rest/v1/neo/3843178?api_key=iIulBulltgU6a56xZRHN4H3l9WmuAYTsLGpBGhQ2"
    },
    "id": "3843178",
    "neo_reference_id": "3843178",
    "name": "(2019 NL4)",
    "designation": "2019 NL4",
    "nasa_jpl_url": "http://ssd.jpl.nasa.gov/sbdb.cgi?sstr=3843178",
    "absolute_magnitude_h": 26.0,
    "estimated_diameter": {
        "kilometers": {
            "estimated_diameter_min": 0.0167708462,
            "estimated_diameter_max": 0.0375007522
        },
        "meters": {
            "estimated_diameter_min": 16.7708462163,
            "estimated_diameter_max": 37.5007521798
        },
        "miles": {
            "estimated_diameter_min": 0.0104209175,
            "estimated_diameter_max": 0.0233018799
        },
        "feet": {
            "estimated_diameter_min": 55.0224631002,
            "estimated_diameter_max": 123.0339677816
        }
    },
    "is_potentially_hazardous_asteroid": false,
    "close_approach_data": [
        {
            "close_approach_date": "2019-07-02",
            "close_approach_date_full": "2019-Jul-02 15:26",
            "epoch_date_close_approach": 1562081160000,
            "relative_velocity": {
                "kilometers_per_second": "13.2705252565",
                "kilometers_per_hour": "47773.8909233222",
                "miles_per_hour": "29684.8379462165"
            },
            "miss_distance": {
                "astronomical": "0.0159157176",
                "lunar": "6.1912141464",
                "kilometers": "2380957.452481512",
                "miles": "1479458.3575763856"
            },
            "orbiting_body": "Earth"
        }
    ],
    "orbital_data": {
        "orbit_id": "3",
        "orbit_determination_date": "2019-07-11 06:15:57",
        "first_observation_date": "2019-07-04",
        "last_observation_date": "2019-07-10",
        "data_arc_in_days": 6,
        "observations_used": 17,
        "orbit_uncertainty": "8",
        "minimum_orbit_intersection": ".010638",
        "jupiter_tisserand_invariant": "3.559",
        "epoch_osculation": "2458670.5",
        "eccentricity": ".5787593561593513",
        "semi_major_axis": "2.044840533504135",
        "inclination": "7.363476064813002",
        "ascending_node_longitude": "285.7905617601666",
        "orbital_period": "1068.040188647753",
        "perihelion_distance": ".8613699428847377",
        "perihelion_argument": "300.7190110817604",
        "aphelion_distance": "3.228311124123533",
        "perihelion_time": "2458627.823626112484",
        "mean_anomaly": "14.3847532731493",
        "mean_motion": ".3370659679536933",
        "equinox": "J2000",
        "orbit_class": {
            "orbit_class_type": "APO",
            "orbit_class_description": "Near-Earth asteroid orbits which cross the Earth’s orbit similar to that of 1862 Apollo",
            "orbit_class_range": "a (semi-major axis) > 1.0 AU; q (perihelion) < 1.017 AU"
        }
    },
    "is_sentry_object": false
}